[Satellite]
VERSION=1.1
NAME=FENGYUN 3B
NICKNAME=FENGYUN 3B
TLE1=1 37214U 10059A   15055.42188860  .00000093  00000-0  65522-4 0  9991
TLE2=2 37214  98.8803   9.0714 0001690  93.6524 266.4837 14.19559716223125
